0 DELTA 1 DEB
1 07176U 73086EN  13282.16452336  .00000025  00000-0  32884-3 0  3394
2 07176 102.2547 155.3138 0176759 105.9209 047.8989 12.75200363857195
0 DELTA 1 DEB
1 07176U 73086EN  13286.61501029  .00000049  00000-0  43665-3 0  3410
2 07176 102.2540 160.0968 0176851 097.1740 318.8622 12.75201023857769
0 DELTA 1 DEB
1 07176U 73086EN  13288.89237394  .00000058  00000-0  47526-3 0  3424
2 07176 102.2534 162.5441 0176889 092.7084 333.6063 12.75201517858053
0 DELTA 1 DEB
1 07176U 73086EN  13291.17863409  .00000035  00000-0  37280-3 0  3433
2 07176 102.2529 165.0010 0176943 088.2207 029.1991 12.75202278858349
0 DELTA 1 DEB
1 07176U 73086EN  13293.21806756  .00000051  00000-0  44343-3 0  3449
2 07176 102.2527 167.1924 0176976 084.2239 031.6780 12.75202521858605
0 DELTA 1 DEB
1 07176U 73086EN  13295.25719552  .00000024  00000-0  32704-3 0  3451
2 07176 102.2527 169.3835 0177026 080.2244 032.7581 12.75203128858862
